[{"OBJECT_NAME":"STARLINK-1234","OBJECT_ID":"2020-012N","EPOCH":"2025-07-31T04:59:00.407904","MEAN_MOTION":15.06395611,"ECCENTRICITY":0.0001127,"INCLINATION":53.055,"RA_OF_ASC_NODE":280.8901,"ARG_OF_PERICENTER":91.1465,"MEAN_ANOMALY":268.9653,"EPHEMERIS_TYPE":0,"CLASSIFICATION_TYPE":"U","NORAD_CAT_ID":45190,"ELEMENT_SET_NO":999,"REV_AT_EPOCH":30103,"BSTAR":4.7148e-5,"MEAN_MOTION_DOT":4.21e-6,"MEAN_MOTION_DDOT":0},{"OBJECT_NAME":"STARLINK-1237","OBJECT_ID":"2020-012Q","EPOCH":"2025-07-31T06:00:02.000160","MEAN_MOTION":15.84947712,"ECCENTRICITY":0.001169,"INCLINATION":53.0562,"RA_OF_ASC_NODE":295.5269,"ARG_OF_PERICENTER":320.0583,"MEAN_ANOMALY":242.8956,"EPHEMERIS_TYPE":0,"CLASSIFICATION_TYPE":"U","NORAD_CAT_ID":45192,"ELEMENT_SET_NO":999,"REV_AT_EPOCH":30087,"BSTAR":0.0038139,"MEAN_MOTION_DOT":0.01027616,"MEAN_MOTION_DDOT":0},{"OBJECT_NAME":"STARLINK-1240","OBJECT_ID":"2020-012S","EPOCH":"2025-07-31T14:00:01.999872","MEAN_MOTION":15.75603426,"ECCENTRICITY":0.0014424,"INCLINATION":53.0479,"RA_OF_ASC_NODE":292.7691,"ARG_OF_PERICENTER":306.5851,"MEAN_ANOMALY":214.524,"EPHEMERIS_TYPE":0,"CLASSIFICATION_TYPE":"U","NORAD_CAT_ID":45194,"ELEMENT_SET_NO":999,"REV_AT_EPOCH":30094,"BSTAR":0.00084401,"MEAN_MOTION_DOT":0.00133731,"MEAN_MOTION_DDOT":0},{"OBJECT_NAME":"STARLINK-1244","OBJECT_ID":"2020-012U","EPOCH":"2025-07-31T14:00:01.999872","MEAN_MOTION":15.78707518,"ECCENTRICITY":0.0012752,"INCLINATION":53.0481,"RA_OF_ASC_NODE":293.5286,"ARG_OF_PERICENTER":307.8265,"MEAN_ANOMALY":277.7481,"EPHEMERIS_TYPE":0,"CLASSIFICATION_TYPE":"U","NORAD_CAT_ID":45196,"ELEMENT_SET_NO":999,"REV_AT_EPOCH":30096,"BSTAR":0.00096967,"MEAN_MOTION_DOT":0.00177212,"MEAN_MOTION_DDOT":0},{"OBJECT_NAME":"STARLINK-1269","OBJECT_ID":"2020-012V","EPOCH":"2025-07-31T12:46:04.891584","MEAN_MOTION":15.0639361,"ECCENTRICITY":0.0001304,"INCLINATION":53.0559,"RA_OF_ASC_NODE":319.4362,"ARG_OF_PERICENTER":100.6073,"MEAN_ANOMALY":259.5063,"EPHEMERIS_TYPE":0,"CLASSIFICATION_TYPE":"U","NORAD_CAT_ID":45197,"ELEMENT_SET_NO":999,"REV_AT_EPOCH":30059,"BSTAR":-3.9325e-5,"MEAN_MOTION_DOT":-8.67e-6,"MEAN_MOTION_DDOT":0},{"OBJECT_NAME":"STARLINK-1154","OBJECT_ID":"2020-012W","EPOCH":"2025-07-31T12:32:49.579584","MEAN_MOTION":15.06389023,"ECCENTRICITY":0.0001256,"INCLINATION":53.0551,"RA_OF_ASC_NODE":299.4752,"ARG_OF_PERICENTER":91.7758,"MEAN_ANOMALY":268.3375,"EPHEMERIS_TYPE":0,"CLASSIFICATION_TYPE":"U","NORAD_CAT_ID":45198,"ELEMENT_SET_NO":999,"REV_AT_EPOCH":30084,"BSTAR":1.5788e-5,"MEAN_MOTION_DOT":-4.6e-7,"MEAN_MOTION_DDOT":0},{"OBJECT_NAME":"STARLINK-1199","OBJECT_ID":"2020-012Z","EPOCH":"2025-07-30T12:55:38.172864","MEAN_MOTION":15.06418384,"ECCENTRICITY":0.0001368,"INCLINATION":53.0557,"RA_OF_ASC_NODE":303.8962,"ARG_OF_PERICENTER":102.2976,"MEAN_ANOMALY":257.8166,"EPHEMERIS_TYPE":0,"CLASSIFICATION_TYPE":"U","NORAD_CAT_ID":45201,"ELEMENT_SET_NO":999,"REV_AT_EPOCH":30069,"BSTAR":0.00027298,"MEAN_MOTION_DOT":3.789e-5,"MEAN_MOTION_DDOT":0},{"OBJECT_NAME":"STARLINK-1206","OBJECT_ID":"2020-012AC","EPOCH":"2025-07-31T14:00:01.999872","MEAN_MOTION":15.7619824,"ECCENTRICITY":0.0013652,"INCLINATION":53.0507,"RA_OF_ASC_NODE":273.8779,"ARG_OF_PERICENTER":319.0458,"MEAN_ANOMALY":14.3334,"EPHEMERIS_TYPE":0,"CLASSIFICATION_TYPE":"U","NORAD_CAT_ID":45204,"ELEMENT_SET_NO":999,"REV_AT_EPOCH":30120,"BSTAR":0.0012374,"MEAN_MOTION_DOT":0.00203061,"MEAN_MOTION_DDOT":0},{"OBJECT_NAME":"STARLINK-1208","OBJECT_ID":"2020-012AD","EPOCH":"2025-07-31T14:00:01.999872","MEAN_MOTION":15.72845839,"ECCENTRICITY":0.0014913,"INCLINATION":53.0478,"RA_OF_ASC_NODE":273.586,"ARG_OF_PERICENTER":316.7821,"MEAN_ANOMALY":57.5463,"EPHEMERIS_TYPE":0,"CLASSIFICATION_TYPE":"U","NORAD_CAT_ID":45205,"ELEMENT_SET_NO":999,"REV_AT_EPOCH":30122,"BSTAR":0.00095766,"MEAN_MOTION_DOT":0.0013476,"MEAN_MOTION_DDOT":0},{"OBJECT_NAME":"STARLINK-1209","OBJECT_ID":"2020-012AE","EPOCH":"2025-07-31T11:26:28.899168","MEAN_MOTION":15.06391636,"ECCENTRICITY":0.0001332,"INCLINATION":53.055,"RA_OF_ASC_NODE":279.6847,"ARG_OF_PERICENTER":90.4205,"MEAN_ANOMALY":269.6937,"EPHEMERIS_TYPE":0,"CLASSIFICATION_TYPE":"U","NORAD_CAT_ID":45206,"ELEMENT_SET_NO":999,"REV_AT_EPOCH":30110,"BSTAR":-4.5264e-5,"MEAN_MOTION_DOT":-9.55e-6,"MEAN_MOTION_DDOT":0},{"OBJECT_NAME":"STARLINK-1210","OBJECT_ID":"2020-012AF","EPOCH":"2025-07-31T09:19:18.872832","MEAN_MOTION":15.37975357,"ECCENTRICITY":0.0004047,"INCLINATION":53.0311,"RA_OF_ASC_NODE":266.0328,"ARG_OF_PERICENTER":61.6233,"MEAN_ANOMALY":298.5177,"EPHEMERIS_TYPE":0,"CLASSIFICATION_TYPE":"U","NORAD_CAT_ID":45207,"ELEMENT_SET_NO":999,"REV_AT_EPOCH":30130,"BSTAR":0.0010679,"MEAN_MOTION_DOT":0.00040311,"MEAN_MOTION_DDOT":0},{"OBJECT_NAME":"STARLINK-1219","OBJECT_ID":"2020-012AJ","EPOCH":"2025-07-31T14:00:01.999872","MEAN_MOTION":15.89024764,"ECCENTRICITY":0.0006625,"INCLINATION":53.04,"RA_OF_ASC_NODE":242.8964,"ARG_OF_PERICENTER":319.1968,"MEAN_ANOMALY":265.2261,"EPHEMERIS_TYPE":0,"CLASSIFICATION_TYPE":"U","NORAD_CAT_ID":45210,"ELEMENT_SET_NO":999,"REV_AT_EPOCH":30163,"BSTAR":0.0011134,"MEAN_MOTION_DOT":0.00337545,"MEAN_MOTION_DDOT":0},{"OBJECT_NAME":"STARLINK-1231","OBJECT_ID":"2020-012AL","EPOCH":"2025-07-31T12:10:49.208736","MEAN_MOTION":15.06607229,"ECCENTRICITY":0.0001005,"INCLINATION":53.0537,"RA_OF_ASC_NODE":299.5401,"ARG_OF_PERICENTER":65.913,"MEAN_ANOMALY":294.1964,"EPHEMERIS_TYPE":0,"CLASSIFICATION_TYPE":"U","NORAD_CAT_ID":45212,"ELEMENT_SET_NO":999,"REV_AT_EPOCH":30085,"BSTAR":0.0011885,"MEAN_MOTION_DOT":0.00017565,"MEAN_MOTION_DDOT":0},{"OBJECT_NAME":"STARLINK-1271","OBJECT_ID":"2020-012AR","EPOCH":"2025-07-31T12:27:30.659040","MEAN_MOTION":15.06388638,"ECCENTRICITY":0.0001094,"INCLINATION":53.0553,"RA_OF_ASC_NODE":299.4922,"ARG_OF_PERICENTER":77.843,"MEAN_ANOMALY":282.2681,"EPHEMERIS_TYPE":0,"CLASSIFICATION_TYPE":"U","NORAD_CAT_ID":45217,"ELEMENT_SET_NO":999,"REV_AT_EPOCH":30084,"BSTAR":1.6535e-5,"MEAN_MOTION_DOT":-3.5e-7,"MEAN_MOTION_DDOT":0},{"OBJECT_NAME":"STARLINK-1191","OBJECT_ID":"2020-012AW","EPOCH":"2025-07-31T04:43:06.417120","MEAN_MOTION":15.0640194,"ECCENTRICITY":0.0001409,"INCLINATION":53.0538,"RA_OF_ASC_NODE":280.9413,"ARG_OF_PERICENTER":86.8714,"MEAN_ANOMALY":273.2436,"EPHEMERIS_TYPE":0,"CLASSIFICATION_TYPE":"U","NORAD_CAT_ID":45222,"ELEMENT_SET_NO":999,"REV_AT_EPOCH":30107,"BSTAR":0.00024671,"MEAN_MOTION_DOT":3.395e-5,"MEAN_MOTION_DDOT":0},{"OBJECT_NAME":"STARLINK-1212","OBJECT_ID":"2020-012AX","EPOCH":"2025-07-31T05:09:44.018784","MEAN_MOTION":15.06391557,"ECCENTRICITY":0.0001284,"INCLINATION":53.0555,"RA_OF_ASC_NODE":281.5132,"ARG_OF_PERICENTER":98.9924,"MEAN_ANOMALY":261.1211,"EPHEMERIS_TYPE":0,"CLASSIFICATION_TYPE":"U","NORAD_CAT_ID":45223,"ELEMENT_SET_NO":999,"REV_AT_EPOCH":30107,"BSTAR":8.0664e-5,"MEAN_MOTION_DOT":9.2e-6,"MEAN_MOTION_DDOT":0}]
