STARLINK-1234           
1 45190U 20012N   25212.20764361  .00000421  00000+0  47148-4 0  9999
2 45190  53.0550 280.8901 0001127  91.1465 268.9653 15.06395611301037
STARLINK-1237           
1 45192U 20012Q   25212.25002315  .01027616  00000+0  38139-2 0  9994
2 45192  53.0562 295.5269 0011690 320.0583 242.8956 15.84947712300872
STARLINK-1240           
1 45194U 20012S   25212.58335648  .00133731  00000+0  84401-3 0  9999
2 45194  53.0479 292.7691 0014424 306.5851 214.5240 15.75603426300945
STARLINK-1244           
1 45196U 20012U   25212.58335648  .00177212  00000+0  96967-3 0  9993
2 45196  53.0481 293.5286 0012752 307.8265 277.7481 15.78707518300964
STARLINK-1269           
1 45197U 20012V   25212.53200106 -.00000867  00000+0 -39325-4 0  9998
2 45197  53.0559 319.4362 0001304 100.6073 259.5063 15.06393610300599
STARLINK-1154           
1 45198U 20012W   25212.52279606 -.00000046  00000+0  15788-4 0  9994
2 45198  53.0551 299.4752 0001256  91.7758 268.3375 15.06389023300843
STARLINK-1199           
1 45201U 20012Z   25211.53863626  .00003789  00000+0  27298-3 0  9994
2 45201  53.0557 303.8962 0001368 102.2976 257.8166 15.06418384300698
STARLINK-1206           
1 45204U 20012AC  25212.58335648  .00203061  00000+0  12374-2 0  9994
2 45204  53.0507 273.8779 0013652 319.0458  14.3334 15.76198240301204
STARLINK-1208           
1 45205U 20012AD  25212.58335648  .00134760  00000+0  95766-3 0  9991
2 45205  53.0478 273.5860 0014913 316.7821  57.5463 15.72845839301222
STARLINK-1209           
1 45206U 20012AE  25212.47672337 -.00000955  00000+0 -45264-4 0  9998
2 45206  53.0550 279.6847 0001332  90.4205 269.6937 15.06391636301106
STARLINK-1210           
1 45207U 20012AF  25212.38841288  .00040311  00000+0  10679-2 0  9990
2 45207  53.0311 266.0328 0004047  61.6233 298.5177 15.37975357301304
STARLINK-1219           
1 45210U 20012AJ  25212.58335648  .00337545  00000+0  11134-2 0  9999
2 45210  53.0400 242.8964 0006625 319.1968 265.2261 15.89024764301630
STARLINK-1231           
1 45212U 20012AL  25212.50751399  .00017565  00000+0  11885-2 0  9998
2 45212  53.0537 299.5401 0001005  65.9130 294.1964 15.06607229300858
STARLINK-1271           
1 45217U 20012AR  25212.51910485 -.00000035  00000+0  16535-4 0  9991
2 45217  53.0553 299.4922 0001094  77.8430 282.2681 15.06388638300844
STARLINK-1191           
1 45222U 20012AW  25212.19660205  .00003395  00000+0  24671-3 0  9993
2 45222  53.0538 280.9413 0001409  86.8714 273.2436 15.06401940301074
STARLINK-1212           
1 45223U 20012AX  25212.21509281  .00000920  00000+0  80664-4 0  9999
2 45223  53.0555 281.5132 0001284  98.9924 261.1211 15.06391557301076
